{"type": "FeatureCollection", "features": [{"type": "Feature", "properties": {"norad_id": 28890, "name": "BEIJING 1", "group": "dmc", "lat": -64.70236061859964, "lon": -83.79488138007228, "alt_km": 692.1957544055931, "timestamp": "2025-12-12T14:39:17.638137+00:00", "meta": {"OBJECT_NAME": "BEIJING 1", "OBJECT_ID": "2005-043A", "EPOCH": "2025-12-12T08:36:44.870688", "MEAN_MOTION": 14.63366809, "ECCENTRICITY": 0.00152904, "INCLINATION": 98.2653, "RA_OF_ASC_NODE": 113.8644, "ARG_OF_PERICENTER": 142.3711, "MEAN_ANOMALY": 217.8563, "EPHEMERIS_TYPE": 0, "CLASSIFICATION_TYPE": "U", "NORAD_CAT_ID": 28890, "ELEMENT_SET_NO": 999, "REV_AT_EPOCH": 7332, "BSTAR": 0.00019438, "MEAN_MOTION_DOT": 9.57e-06, "MEAN_MOTION_DDOT": 0}, "tle": {"line1": "1 28890U 05043A   25346.35885267  .00000957  00000+0  19438-3 0  9991", "line2": "2 28890  98.2653 113.8644 0015290 142.3711 217.8563 14.63366809 73328"}}, "geometry": {"type": "Point", "coordinates": [-83.79488138007228, -64.70236061859964]}}, {"type": "Feature", "properties": {"norad_id": 33320, "name": "HUANJING 1A (HJ-1A)", "group": "dmc", "lat": -80.10328864783496, "lon": 104.48523927166526, "alt_km": 635.2668645684334, "timestamp": "2025-12-12T14:39:17.638161+00:00", "meta": {"OBJECT_NAME": "HUANJING 1A (HJ-1A)", "OBJECT_ID": "2008-041A", "EPOCH": "2025-12-12T06:59:37.671072", "MEAN_MOTION": 14.83393499, "ECCENTRICITY": 0.00202011, "INCLINATION": 97.6545, "RA_OF_ASC_NODE": 334.6087, "ARG_OF_PERICENTER": 35.8709, "MEAN_ANOMALY": 324.3858, "EPHEMERIS_TYPE": 0, "CLASSIFICATION_TYPE": "U", "NORAD_CAT_ID": 33320, "ELEMENT_SET_NO": 999, "REV_AT_EPOCH": 93069, "BSTAR": 0.00030447621, "MEAN_MOTION_DOT": 2.455e-05, "MEAN_MOTION_DDOT": 0}, "tle": {"line1": "1 33320U 08041A   25346.29140823  .00002455  00000+0  30448-3 0  9990", "line2": "2 33320  97.6545 334.6087 0020201  35.8709 324.3858 14.83393499930690"}}, "geometry": {"type": "Point", "coordinates": [104.48523927166526, -80.10328864783496]}}, {"type": "Feature", "properties": {"norad_id": 33321, "name": "HUANJING 1B (HJ-1B)", "group": "dmc", "lat": 53.659918274344996, "lon": 169.12552902480775, "alt_km": 598.0026796374814, "timestamp": "2025-12-12T14:39:17.638172+00:00", "meta": {"OBJECT_NAME": "HUANJING 1B (HJ-1B)", "OBJECT_ID": "2008-041B", "EPOCH": "2025-12-12T05:59:46.665888", "MEAN_MOTION": 14.82820323, "ECCENTRICITY": 0.00381911, "INCLINATION": 97.6403, "RA_OF_ASC_NODE": 338.267, "ARG_OF_PERICENTER": 77.1817, "MEAN_ANOMALY": 283.366, "EPHEMERIS_TYPE": 0, "CLASSIFICATION_TYPE": "U", "NORAD_CAT_ID": 33321, "ELEMENT_SET_NO": 999, "REV_AT_EPOCH": 93070, "BSTAR": 0.0003403018, "MEAN_MOTION_DOT": 2.737e-05, "MEAN_MOTION_DDOT": 0}, "tle": {"line1": "1 33321U 08041B   25346.24984567  .00002737  00000+0  34030-3 0  9991", "line2": "2 33321  97.6403 338.2670 0038191  77.1817 283.3660 14.82820323930705"}}, "geometry": {"type": "Point", "coordinates": [169.12552902480775, 53.659918274344996]}}, {"type": "Feature", "properties": {"norad_id": 33446, "name": "YAOGAN-4", "group": "dmc", "lat": 36.5702305208092, "lon": -89.21506952201659, "alt_km": 615.5486962887335, "timestamp": "2025-12-12T14:39:17.638183+00:00", "meta": {"OBJECT_NAME": "YAOGAN-4", "OBJECT_ID": "2008-061A", "EPOCH": "2025-12-12T06:23:25.930176", "MEAN_MOTION": 14.82680249, "ECCENTRICITY": 0.00135971, "INCLINATION": 97.918, "RA_OF_ASC_NODE": 276.3703, "ARG_OF_PERICENTER": 325.0698, "MEAN_ANOMALY": 34.9622, "EPHEMERIS_TYPE": 0, "CLASSIFICATION_TYPE": "U", "NORAD_CAT_ID": 33446, "ELEMENT_SET_NO": 999, "REV_AT_EPOCH": 91796, "BSTAR": 0.00029483292, "MEAN_MOTION_DOT": 2.328e-05, "MEAN_MOTION_DDOT": 0}, "tle": {"line1": "1 33446U 08061A   25346.26627234  .00002328  00000+0  29483-3 0  9990", "line2": "2 33446  97.9180 276.3703 0013597 325.0698  34.9622 14.82680249917964"}}, "geometry": {"type": "Point", "coordinates": [-89.21506952201659, 36.5702305208092]}}, {"type": "Feature", "properties": {"norad_id": 35681, "name": "DEIMOS-1", "group": "dmc", "lat": 9.42469952266603, "lon": -31.49088612067396, "alt_km": 647.0434810428724, "timestamp": "2025-12-12T14:39:17.638193+00:00", "meta": {"OBJECT_NAME": "DEIMOS-1", "OBJECT_ID": "2009-041A", "EPOCH": "2025-12-12T07:22:21.170208", "MEAN_MOTION": 14.74952732, "ECCENTRICITY": 0.0002735, "INCLINATION": 97.7151, "RA_OF_ASC_NODE": 146.9305, "ARG_OF_PERICENTER": 80.3247, "MEAN_ANOMALY": 279.8271, "EPHEMERIS_TYPE": 0, "CLASSIFICATION_TYPE": "U", "NORAD_CAT_ID": 35681, "ELEMENT_SET_NO": 999, "REV_AT_EPOCH": 87933, "BSTAR": 0.00021935524, "MEAN_MOTION_DOT": 1.427e-05, "MEAN_MOTION_DDOT": 0}, "tle": {"line1": "1 35681U 09041A   25346.30718947  .00001427  00000+0  21936-3 0  9993", "line2": "2 35681  97.7151 146.9305 0002735  80.3247 279.8271 14.74952732879334"}}, "geometry": {"type": "Point", "coordinates": [-31.49088612067396, 9.42469952266603]}}, {"type": "Feature", "properties": {"norad_id": 35683, "name": "UK-DMC 2", "group": "dmc", "lat": -5.181795354113958, "lon": -59.20091361472748, "alt_km": 646.8409367401255, "timestamp": "2025-12-12T14:39:17.638202+00:00", "meta": {"OBJECT_NAME": "UK-DMC 2", "OBJECT_ID": "2009-041C", "EPOCH": "2025-12-12T07:18:32.766624", "MEAN_MOTION": 14.75620997, "ECCENTRICITY": 0.00014557, "INCLINATION": 97.8562, "RA_OF_ASC_NODE": 121.2192, "ARG_OF_PERICENTER": 96.2758, "MEAN_ANOMALY": 263.8618, "EPHEMERIS_TYPE": 0, "CLASSIFICATION_TYPE": "U", "NORAD_CAT_ID": 35683, "ELEMENT_SET_NO": 999, "REV_AT_EPOCH": 87900, "BSTAR": 0.00025796332, "MEAN_MOTION_DOT": 1.711e-05, "MEAN_MOTION_DDOT": 0}, "tle": {"line1": "1 35683U 09041C   25346.30454591  .00001711  00000+0  25796-3 0  9991", "line2": "2 35683  97.8562 121.2192 0001455  96.2758 263.8618 14.75620997879002"}}, "geometry": {"type": "Point", "coordinates": [-59.20091361472748, -5.181795354113958]}}, {"type": "Feature", "properties": {"norad_id": 40715, "name": "DMC3-FM1", "group": "dmc", "lat": -48.938662116511416, "lon": 24.909897487748864, "alt_km": 619.2669359005968, "timestamp": "2025-12-12T14:39:17.638212+00:00", "meta": {"OBJECT_NAME": "DMC3-FM1", "OBJECT_ID": "2015-032A", "EPOCH": "2025-12-12T07:09:28.512288", "MEAN_MOTION": 14.85437618, "ECCENTRICITY": 0.00047228, "INCLINATION": 97.669, "RA_OF_ASC_NODE": 213.5068, "ARG_OF_PERICENTER": 323.3742, "MEAN_ANOMALY": 36.715, "EPHEMERIS_TYPE": 0, "CLASSIFICATION_TYPE": "U", "NORAD_CAT_ID": 40715, "ELEMENT_SET_NO": 999, "REV_AT_EPOCH": 56216, "BSTAR": 9.9606114e-05, "MEAN_MOTION_DOT": 8.07e-06, "MEAN_MOTION_DDOT": 0}, "tle": {"line1": "1 40715U 15032A   25346.29824667  .00000807  00000+0  99606-4 0  9990", "line2": "2 40715  97.6690 213.5068 0004722 323.3742  36.7150 14.85437618562169"}}, "geometry": {"type": "Point", "coordinates": [24.909897487748864, -48.938662116511416]}}, {"type": "Feature", "properties": {"norad_id": 40716, "name": "DMC3-FM2", "group": "dmc", "lat": 69.23643384430336, "lon": 56.085451063822674, "alt_km": 608.4647364247849, "timestamp": "2025-12-12T14:39:17.638222+00:00", "meta": {"OBJECT_NAME": "DMC3-FM2", "OBJECT_ID": "2015-032B", "EPOCH": "2025-12-12T06:04:52.233312", "MEAN_MOTION": 14.85439999, "ECCENTRICITY": 0.00053373, "INCLINATION": 97.6746, "RA_OF_ASC_NODE": 214.907, "ARG_OF_PERICENTER": 327.656, "MEAN_ANOMALY": 32.4328, "EPHEMERIS_TYPE": 0, "CLASSIFICATION_TYPE": "U", "NORAD_CAT_ID": 40716, "ELEMENT_SET_NO": 999, "REV_AT_EPOCH": 56215, "BSTAR": 0.00017391261, "MEAN_MOTION_DOT": 1.448e-05, "MEAN_MOTION_DDOT": 0}, "tle": {"line1": "1 40716U 15032B   25346.25338233  .00001448  00000+0  17391-3 0  9998", "line2": "2 40716  97.6746 214.9070 0005337 327.6560  32.4328 14.85439999562151"}}, "geometry": {"type": "Point", "coordinates": [56.085451063822674, 69.23643384430336]}}, {"type": "Feature", "properties": {"norad_id": 40717, "name": "DMC3-FM3", "group": "dmc", "lat": -6.311925579407994, "lon": -142.26042098673184, "alt_km": 613.0797672837707, "timestamp": "2025-12-12T14:39:17.638231+00:00", "meta": {"OBJECT_NAME": "DMC3-FM3", "OBJECT_ID": "2015-032C", "EPOCH": "2025-12-12T06:36:00.165024", "MEAN_MOTION": 14.85431086, "ECCENTRICITY": 0.00046578, "INCLINATION": 97.6801, "RA_OF_ASC_NODE": 216.5606, "ARG_OF_PERICENTER": 330.6335, "MEAN_ANOMALY": 29.4618, "EPHEMERIS_TYPE": 0, "CLASSIFICATION_TYPE": "U", "NORAD_CAT_ID": 40717, "ELEMENT_SET_NO": 999, "REV_AT_EPOCH": 56216, "BSTAR": 0.00019633416, "MEAN_MOTION_DOT": 1.641e-05, "MEAN_MOTION_DDOT": 0}, "tle": {"line1": "1 40717U 15032C   25346.27500191  .00001641  00000+0  19633-3 0  9991", "line2": "2 40717  97.6801 216.5606 0004657 330.6335  29.4618 14.85431086562163"}}, "geometry": {"type": "Point", "coordinates": [-142.26042098673184, -6.311925579407994]}}]}